NOAA 5                  
1 09057U 76077A   25006.94805089 -.00000011  00000+0  26456-3 0  9992
2 09057 102.2384 346.2264 0009506 223.3005 201.5895 12.37811511189362
